CZ-4B R/B               
1 28415U 04035C   25258.58362647  .00006988  00000+0  27511-3 0  9994
2 28415  97.3742 290.1606 0033570 226.0283 133.8186 15.25408519153187
CZ-2C R/B               
1 28480U 04046B   25258.53488036  .00000185  00000+0  84635-4 0  9998
2 28480  98.1910 179.4327 0138750 313.2752  45.6921 14.26877268 83528
ARIANE 5 R/B            
1 28499U 04049H   25258.44325578  .00001387  00000+0  16091-3 0  9997
2 28499  98.2462  55.6150 0084678 198.2034 161.6143 14.84695066119784
CZ-2D R/B               
1 28738U 05024B   25258.54732741  .00026407  00000+0  51950-3 0  9995
2 28738  97.3708 264.0254 0003480 331.0339  29.0718 15.47236926112594
ALOS (DAICHI)           
1 28931U 06002A   25257.89000597  .00001296  00000+0  22929-3 0  9994
2 28931  98.0928 210.1105 0002229  98.9631 261.1827 14.69014016 47664
H-2A R/B                
1 28932U 06002B   25258.32064286  .00013697  00000+0  76304-3 0  9993
2 28932  98.2217  26.0702 0057788 116.6564 244.0599 15.12300823 67894
RESURS-DK 1             
1 29228U 06021A   25258.56554466  .00002241  00000+0  13857-3 0  9990
2 29228  69.9353 329.5795 0004531 343.4021  16.6995 15.11429007 61058
CZ-4B R/B               
1 29507U 06046C   25258.60772343  .00004855  00000+0  26270-3 0  9994
2 29507  97.5879 298.9894 0035950 151.1784 209.1444 15.14573805 33524
CZ-2C R/B               
1 31114U 07010B   25258.58155770  .00000122  00000+0  74680-4 0  9991
2 31114  98.3891  15.7115 0060209  83.6102 277.1928 14.20159839954867
COSMO-SKYMED 1          
1 31598U 07023A   25258.59108191  .00003421  00000+0  31942-3 0  9995
2 31598  97.8893  83.4539 0001368  93.4426 266.6951 14.94859843988724
COSMOS 2428             
1 31792U 07029A   25258.59530252 -.00000120  00000+0 -38486-4 0  9990
2 31792  70.9428 210.9097 0003655 206.9943 153.0988 14.12903532939368
SL-16 R/B               
1 31793U 07029B   25258.52839675 -.00000242  00000+0 -10068-3 0  9995
2 31793  70.9759 180.5756 0002849 269.1442 263.4609 14.14791584940596
KORONAS-FOTON           
1 33504U 09003A   25258.56459393  .00011274  00000+0  29728-3 0  9998
2 33504  82.4296  97.2563 0013092  68.0479 292.2155 15.38259666918778
CZ-2C R/B               
1 37731U 11030B   25258.62794966  .00001016  00000+0  13677-3 0  9991
2 37731  97.8247 214.7946 0052700 198.4311 334.8167 14.80458865764181
H-2A R/B                
1 38341U 12025E   25258.29810438  .00003049  00000+0  28987-3 0  9998
2 38341  98.4436 206.8574 0046270 164.1256 196.1424 14.93524384722024
SHIJIAN-16 (SJ-16)      
1 39358U 13057A   25258.54607320  .00001602  00000+0  16224-3 0  9999
2 39358  74.9726 156.4675 0017093 181.5093 178.6047 14.91561469645381
SL-4 R/B                
1 39679U 14021B   25258.00698863  .00010013  00000+0  26390-3 0  9991
2 39679  51.6075 110.7104 0109563 184.7214 175.2743 15.33257328629268
ALOS-2                  
1 39766U 14029A   25258.61743368  .00000077  00000+0  17194-4 0  9996
2 39766  97.9224 354.7225 0001396  97.5836 262.5534 14.79472197610983
YAOGAN-29               
1 41038U 15069A   25258.62242774  .00000372  00000+0  52809-4 0  9992
2 41038  98.0321 281.4607 0001797 145.2374 214.8957 14.82733654529936
ASTRO-H (HITOMI)        
1 41337U 16012A   25258.44705472  .00003543  00000+0  21560-3 0  9994
2 41337  31.0004  46.2071 0010096  12.5542 347.5346 15.08526068525738
HXMT (HUIYAN)           
1 42758U 17034A   25258.47513491  .00006423  00000+0  34741-3 0  9993
2 42758  43.0139 268.8858 0034280 210.9247 148.9581 15.14763968455948
CZ-2C R/B               
1 43521U 18054D   25258.59994900  .00053808  00000+0  66216-3 0  9997
2 43521  35.1377  50.9327 0031012  24.6266 335.5936 15.58517972401236
SAOCOM 1A               
1 43641U 18076A   25258.63815013  .00000426  00000+0  60071-4 0  9998
2 43641  97.8897  84.3219 0001345  91.8345 268.3022 14.82152957375437
H-2A R/B                
1 43682U 18084L   25258.24470837  .00026475  00000+0  81907-3 0  9992
2 43682  98.8844  74.2966 0030058 268.5237  91.2557 15.33034395378822
SAOCOM 1B               
1 46265U 20059A   25258.60188333  .00000380  00000+0  54336-4 0  9998
2 46265  97.8890  83.3931 0001542  89.7412 270.3978 14.82156087272814
CSS (TIANHE)            
1 48274U 21035A   25258.50055160  .00030280  00000+0  37301-3 0  9999
2 48274  41.4641 193.1436 0004035 348.8872  11.1877 15.59545182250249
COSMOS 2550             
1 48865U 21056A   25258.63062550 -.00000070  00000+0  36860-5 0  9999
2 48865  67.1407 210.5082 0008233 270.2007  89.8204 15.33827974236618
CZ-2C R/B               
1 52794U 22058K   25258.35910219  .00026886  00000+0  57870-3 0  9995
2 52794  50.1918 132.2492 0054210 188.7531 171.2495 15.42815671182966
GSLV R/B                
1 54149U 22138AN  25258.34487048  .00003990  00000+0  35776-3 0  9990
2 54149  87.3801 225.0505 0024945  71.2395 289.1539 14.95280235157719
XRISM                   
1 57800U 23137A   25258.50060351  .00005487  00000+0  33334-3 0  9990
2 57800  31.0035 334.6512 0008222  80.2780 279.8786 15.08940916111280
ACS3                    
1 59588U 24077B   25258.55962655  .00021805  00000+0  20548-1 0  9995
2 59588  97.3947 233.4831 0045019 348.1024  11.9067 13.80762323 69959
